NORAD_CAT_ID,OBJECT_NAME,OBJECT_TYPE,EPOCH,MEAN_MOTION,ECCENTRICITY,INCLINATION,RA_OF_ASC_NODE,ARG_OF_PERICENTER,MEAN_ANOMALY,BSTAR,MEAN_MOTION_DOT,MEAN_MOTION_DDOT,TLE_LINE0,TLE_LINE1,TLE_LINE2,SEMIMAJOR_AXIS,PERIOD,APOGEE,PERIGEE,DECAYED
53984.0,STARLINK-5142,PAYLOAD,2023-03-08 02:43:26,15.08848991,0.000234,53.2156,101.4858,115.7503,244.3731,0.001514,0.00023896,0.0,0 STARLINK-5142,1 53984U 22125W   23067.11350511  .00023896  00000-0  15140-2 0  9997,2 53984  53.2156 101.4858 0002340 115.7503 244.3731 15.08848991 23834,6917.853,95.437,541.337,538.099,0.0
53984.0,STARLINK-5142,PAYLOAD,2023-03-08 18:37:18,15.08855376,0.0002368,53.2155,98.5106,83.6864,276.4398,0.0014304,0.0002256,0.0,0 STARLINK-5142,1 53984U 22125W   23067.77590524  .00022560  00000-0  14304-2 0  9997,2 53984  53.2155  98.5106 0002368  83.6864 276.4398 15.08855376 23939,6917.833,95.437,541.337,538.06,0.0
53984.0,STARLINK-5142,PAYLOAD,2023-03-09 18:28:04,15.08850006,0.0001532,53.2154,94.0504,99.222,260.8946,0.00060196,9.308e-05,0.0,0 STARLINK-5142,1 53984U 22125W   23068.76950075  .00009308  00000-0  60196-3 0  9994,2 53984  53.2154  94.0504 0001532  99.2220 260.8946 15.08850006 24080,6917.85,95.437,540.775,538.655,0.0
53984.0,STARLINK-5142,PAYLOAD,2023-03-10 18:18:51,15.08846351,0.0002093,53.2154,89.5866,81.4752,278.6478,0.00053478,8.235e-05,0.0,0 STARLINK-5142,1 53984U 22125W   23069.76310084  .00008235  00000-0  53478-3 0  9998,2 53984  53.2154  89.5866 0002093  81.4752 278.6478 15.08846351 24238,6917.861,95.437,541.174,538.278,0.0
53984.0,STARLINK-5142,PAYLOAD,2023-03-11 10:12:43,15.08830849,0.0001833,53.2174,86.611,76.8544,283.2653,0.00018284,2.622e-05,0.0,0 STARLINK-5142,1 53984U 22125W   23070.42550596  .00002622  00000-0  18284-3 0  9997,2 53984  53.2174  86.6110 0001833  76.8544 283.2653 15.08830849 24331,6917.908,95.438,541.041,538.505,0.0
53984.0,STARLINK-5142,PAYLOAD,2023-03-11 13:23:29,15.08838841,0.0001495,53.2165,86.0197,81.145,278.9711,0.0005393,8.305e-05,0.0,0 STARLINK-5142,1 53984U 22125W   23070.55798458  .00008305  00000-0  53930-3 0  9993,2 53984  53.2165  86.0197 0001495  81.1450 278.9711 15.08838841 24289,6917.884,95.438,540.783,538.715,0.0
53984.0,STARLINK-5142,PAYLOAD,2023-03-12 05:17:21,15.0884378,0.0001546,53.2148,83.047,78.8111,281.3055,0.00077726,0.00012105,0.0,0 STARLINK-5142,1 53984U 22125W   23071.22038890  .00012105  00000-0  77726-3 0  9997,2 53984  53.2148  83.0470 0001546  78.8111 281.3055 15.08843780 24383,6917.869,95.437,540.803,538.664,0.0
53984.0,STARLINK-5142,PAYLOAD,2023-03-12 08:28:07,15.08847433,0.0001489,53.2153,82.4523,79.1159,281.0001,0.00073272,0.00011395,0.0,0 STARLINK-5142,1 53984U 22125W   23071.35286772  .00011395  00000-0  73272-3 0  9997,2 53984  53.2153  82.4523 0001489  79.1159 281.0001 15.08847433 24470,6917.858,95.437,540.753,538.693,0.0
53984.0,STARLINK-5142,PAYLOAD,2023-03-13 09:54:17,15.08854666,0.0001854,53.2161,77.6971,67.6616,292.4572,0.00046289,7.089e-05,0.0,0 STARLINK-5142,1 53984U 22125W   23072.41270403  .00007089  00000-0  46289-3 0  9992,2 53984  53.2161  77.6971 0001854  67.6616 292.4572 15.08854666 24631,6917.836,95.437,540.983,538.418,0.0
53984.0,STARLINK-5142,PAYLOAD,2023-03-13 11:29:40,15.0885709,0.0002009,53.2161,77.4005,61.3568,298.7626,0.00051711,7.955e-05,0.0,0 STARLINK-5142,1 53984U 22125W   23072.47894377  .00007955  00000-0  51711-3 0  9998,2 53984  53.2161  77.4005 0002009  61.3568 298.7626 15.08857090 24573,6917.828,95.436,541.083,538.303,0.0
53984.0,STARLINK-5142,PAYLOAD,2023-03-14 00:12:46,15.08837181,0.0001319,53.2164,75.0202,77.0905,283.0235,-4.3767e-05,-9.84e-06,0.0,0 STARLINK-5142,1 53984U 22125W   23073.00886576 -.00000984  00000-0 -43767-4 0  9990,2 53984  53.2164  75.0202 0001319  77.0905 283.0235 15.08837181 24720,6917.889,95.438,540.666,538.842,0.0
53984.0,STARLINK-5142,PAYLOAD,2023-03-14 09:45:04,15.08843512,0.0001378,53.2168,73.234,100.6848,259.4299,0.00015998,2.259e-05,0.0,0 STARLINK-5142,1 53984U 22125W   23073.40630540  .00002259  00000-0  15998-3 0  9991,2 53984  53.2168  73.2340 0001378 100.6848 259.4299 15.08843512 24712,6917.87,95.437,540.688,538.781,0.0
53984.0,STARLINK-5142,PAYLOAD,2023-03-15 03:14:19,15.08849362,0.0001464,53.2169,69.964,99.1019,261.0139,0.00048658,7.466e-05,0.0,0 STARLINK-5142,1 53984U 22125W   23074.13494402  .00007466  00000-0  48658-3 0  9991,2 53984  53.2169  69.9640 0001464  99.1019 261.0139 15.08849362 24896,6917.852,95.437,540.73,538.704,0.0
53984.0,STARLINK-5142,PAYLOAD,2023-03-15 06:25:05,15.08859999,0.0001436,53.2165,69.3689,97.4813,262.6342,0.00082437,0.00012863,0.0,0 STARLINK-5142,1 53984U 22125W   23074.26742132  .00012863  00000-0  82437-3 0  9991,2 53984  53.2165  69.3689 0001436  97.4813 262.6342 15.08859999 24846,6917.819,95.436,540.678,538.691,0.0
53984.0,STARLINK-5142,PAYLOAD,2023-03-16 01:29:42,15.08832579,4.38e-05,53.2177,65.8001,100.7299,259.3743,-0.00025681,-4.371e-05,0.0,0 STARLINK-5142,1 53984U 22125W   23075.06230299 -.00004371  00000-0 -25681-3 0  9991,2 53984  53.2177  65.8001 0000438 100.7299 259.3743 15.08832579 25030,6917.903,95.438,540.071,539.465,0.0
53984.0,STARLINK-5142,PAYLOAD,2023-03-16 11:02:01,15.08853836,0.0001174,53.2172,64.0168,99.4598,260.6527,0.00040133,6.107e-05,0.0,0 STARLINK-5142,1 53984U 22125W   23075.45973933  .00006107  00000-0  40133-3 0  9999,2 53984  53.2172  64.0168 0001174  99.4598 260.6527 15.08853836 25094,6917.838,95.437,540.515,538.891,0.0
53984.0,STARLINK-5142,PAYLOAD,2023-03-16 15:48:11,15.08833475,9.95e-05,53.2177,63.1252,98.2019,261.9086,-0.00017757,-3.112e-05,0.0,0 STARLINK-5142,1 53984U 22125W   23075.65846497 -.00003112  00000-0 -17757-3 0  9996,2 53984  53.2177  63.1252 0000995  98.2019 261.9086 15.08833475 25123,6917.9,95.438,540.454,539.077,0.0
53984.0,STARLINK-5142,PAYLOAD,2023-03-17 09:17:26,15.08833776,0.0001206,53.2171,59.8543,89.5429,270.5701,0.00035803,5.414e-05,0.0,0 STARLINK-5142,1 53984U 22125W   23076.38711063  .00005414  00000-0  35803-3 0  9994,2 53984  53.2171  59.8543 0001206  89.5429 270.5701 15.08833776 25164,6917.899,95.438,540.599,538.93,0.0
53984.0,STARLINK-5142,PAYLOAD,2023-03-17 15:38:59,15.08832809,0.0001279,53.2167,58.6646,88.2271,271.8867,0.00036553,5.533e-05,0.0,0 STARLINK-5142,1 53984U 22125W   23076.65207290  .00005533  00000-0  36553-3 0  9991,2 53984  53.2167  58.6646 0001279  88.2271 271.8867 15.08832809 25209,6917.902,95.438,540.652,538.883,0.0
53984.0,STARLINK-5142,PAYLOAD,2023-03-18 09:08:13,15.08862781,0.0001229,53.2165,55.3938,93.0993,267.014,0.00096952,0.00015185,0.0,0 STARLINK-5142,1 53984U 22125W   23077.38070620  .00015185  00000-0  96952-3 0  9990,2 53984  53.2165  55.3938 0001229  93.0993 267.0140 15.08862781 25387,6917.811,95.436,540.526,538.826,0.0
53984.0,STARLINK-5142,PAYLOAD,2023-03-18 10:43:36,15.0886606,0.0001218,53.2162,55.0958,89.6408,270.4724,0.0010187,0.00015973,0.0,0 STARLINK-5142,1 53984U 22125W   23077.44694492  .00015973  00000-0  10187-2 0  9996,2 53984  53.2162  55.0958 0001218  89.6408 270.4724 15.08866060 25327,6917.801,95.436,540.508,538.823,0.0
53984.0,STARLINK-5142,PAYLOAD,2023-03-19 04:12:50,15.08843525,0.0001312,53.2159,51.8234,89.192,270.9222,0.00021843,3.19e-05,0.0,0 STARLINK-5142,1 53984U 22125W   23078.17558925  .00003190  00000-0  21843-3 0  9997,2 53984  53.2159  51.8234 0001312  89.1920 270.9222 15.08843525 25502,6917.87,95.437,540.642,538.827,0.0
53984.0,STARLINK-5142,PAYLOAD,2023-03-19 10:34:23,15.08857577,0.000121,53.2158,50.6333,96.5355,263.5775,0.00086293,0.00013479,0.0,0 STARLINK-5142,1 53984U 22125W   23078.44054650  .00013479  00000-0  86293-3 0  9994,2 53984  53.2158  50.6333 0001210  96.5355 263.5775 15.08857577 25478,6917.827,95.436,540.529,538.855,0.0
53984.0,STARLINK-5142,PAYLOAD,2023-03-19 15:20:32,15.08826062,0.0001383,53.2161,49.7422,102.9307,257.1839,-0.00017012,-2.993e-05,0.0,0 STARLINK-5142,1 53984U 22125W   23078.63926972 -.00002993  00000-0 -17012-3 0  9994,2 53984  53.2161  49.7422 0001383 102.9307 257.1839 15.08826062 25576,6917.923,95.438,540.745,538.831,0.0
53984.0,STARLINK-5142,PAYLOAD,2023-03-20 07:14:24,15.08848118,0.0001298,53.2165,46.7683,104.0495,256.0642,0.0013898,0.00021905,0.0,0 STARLINK-5142,1 53984U 22125W   23079.30167242  .00021905  00000-0  13898-2 0  9995,2 53984  53.2165  46.7683 0001298 104.0495 256.0642 15.08848118 25679,6917.856,95.437,540.619,538.823,0.0
53984.0,STARLINK-5142,PAYLOAD,2023-03-20 15:11:20,15.08838954,0.0001825,53.2153,45.2807,102.5333,257.5863,0.000365,5.526e-05,0.0,0 STARLINK-5142,1 53984U 22125W   23079.63287480  .00005526  00000-0  36500-3 0  9995,2 53984  53.2153  45.2807 0001825 102.5333 257.5863 15.08838954 25722,6917.884,95.438,541.011,538.486,0.0
53984.0,STARLINK-5142,PAYLOAD,2023-03-21 07:05:11,15.08858357,0.0001542,53.218,42.3062,113.2211,246.8944,0.00073023,0.00011359,0.0,0 STARLINK-5142,1 53984U 22125W   23080.29526897  .00011359  00000-0  73023-3 0  9999,2 53984  53.2180  42.3062 0001542 113.2211 246.8944 15.08858357 25824,6917.824,95.436,540.756,538.623,0.0
53984.0,STARLINK-5142,PAYLOAD,2023-03-22 03:45:12,15.0884613,0.0001205,53.2166,38.4401,97.0929,263.02,0.00055606,8.574e-05,0.0,0 STARLINK-5142,1 53984U 22125W   23081.15639369  .00008574  00000-0  55606-3 0  9996,2 53984  53.2166  38.4401 0001205  97.0929 263.0200 15.08846130 25958,6917.862,95.437,540.56,538.893,0.0
53984.0,STARLINK-5142,PAYLOAD,2023-03-22 06:55:58,15.08847623,0.0001185,53.2169,37.8454,97.3106,262.8021,0.0006068,9.384e-05,0.0,0 STARLINK-5142,1 53984U 22125W   23081.28887332  .00009384  00000-0  60680-3 0  9993,2 53984  53.2169  37.8454 0001185  97.3106 262.8021 15.08847623 25900,6917.857,95.437,540.542,538.902,0.0
53984.0,STARLINK-5142,PAYLOAD,2023-03-23 03:35:59,15.0886066,0.0001151,53.2181,33.9827,84.9369,275.1754,0.0016408,0.00025937,0.0,0 STARLINK-5142,1 53984U 22125W   23082.14999275  .00025937  00000-0  16408-2 0  9999,2 53984  53.2181  33.9827 0001151  84.9369 275.1754 15.08860660 26100,6917.817,95.436,540.478,538.886,0.0
